SJ-4
1 22996U 94010A   15134.68363720  .00006276  00000-0  28582-3 0  9990
2 22996 028.6753 231.7236 5712370 253.5788 337.4835 04.54782092260268
SJ-5
1 25731U 99025B   15135.82560087  .00000132  00000-0  96387-4 0  9997
2 25731 099.0230 120.4821 0015964 274.8242 085.1106 14.12265536825376
SJ-6A
1 28413U 04035A   15135.85763908  .00001942  00000-0  18833-3 0  9993
2 28413 097.8225 140.9726 0018487 040.6214 319.6360 14.93730684581307
SJ-6B
1 28414U 04035B   15135.87139328  .00001022  00000-0  10260-3 0  9994
2 28414 097.8216 141.1526 0007284 037.3237 322.8498 14.93468221581280
SJ-7
1 28737U 05024A   15135.85209188  .00001516  00000-0  14358-3 0  9991
2 28737 097.6668 149.2247 0032308 345.4369 014.5940 14.94708590540908
SJ-6C
1 29505U 06046A   15135.81389697  .00001839  00000-0  17904-3 0  9998
2 29505 097.7868 131.3917 0004717 101.8044 258.3745 14.93744199465886
SJ-6D
1 29506U 06046B   15135.85576717  .00001480  00000-0  14876-3 0  9991
2 29506 097.8020 130.2986 0002767 140.7568 219.3862 14.92746245465653
SJ-6E
1 33408U 08053A   15135.83256142  .00001843  00000-0  18185-3 0  9992
2 33408 097.5746 132.3724 0015525 267.2390 092.7058 14.93077082356856
SJ-6F
1 33409U 08053B   15135.85224581  .00000937  00000-0  92643-4 0  9992
2 33409 097.5680 134.1814 0014842 240.1343 119.8393 14.94109954356996
SJ-11-01
1 36088U 09061A   15135.83107205  .00000690  00000-0  15482-3 0  9990
2 36088 098.2409 181.9556 0012821 122.8674 237.3772 14.59615450293272
SJ-12
1 36596U 10027A   15134.88102801  .00003070  00000-0  28583-3 0  9990
2 36596 097.5984 150.4306 0014133 077.7505 282.5298 14.94932139267652
SJ-6G
1 37179U 10051A   15135.77573780  .00000817  00000-0  83940-4 0  9997
2 37179 097.6054 150.1641 0015725 115.9920 244.2940 14.92886106250811
SJ-6H
1 37180U 10051B   15135.76388718  .00000927  00000-0  95090-4 0  9994
2 37180 097.6049 149.5170 0013237 130.0123 230.2249 14.92656329250791
SJ-11-03
1 37730U 11030A   15135.78853156  .00000727  00000-0  15987-3 0  9992
2 37730 098.1062 213.1835 0008733 177.8585 182.2657 14.60332749205617
SJ-11-02
1 37765U 11039A   15135.88859334  .00000862  00000-0  18673-3 0  9999
2 37765 098.2673 264.9963 0010666 251.2093 108.7960 14.60652524202263
SJ-9A
1 38860U 12056A   15135.76943913  .00001363  00000-0  18676-3 0  9990
2 38860 097.8996 212.7501 0023892 167.1307 193.0519 14.79889052139488
SJ-9B
1 38861U 12056B   15135.76457571  .00002103  00000-0  28234-3 0  9995
2 38861 097.9009 212.7017 0019093 166.3851 193.7889 14.80261043139438
SJ-11-05
1 39202U 13035A   15135.76476294  .00000779  00000-0  17181-3 0  9992
2 39202 098.1924 286.9218 0010230 295.7590 064.2561 14.60036863 97636
SJ-16
1 39358U 13057A   15135.80946708  .00002262  00000-0  24723-3 0  9994
2 39358 074.9763 039.8150 0011041 284.4839 075.5135 14.88320849 84406
SJ-11-06
1 39624U 14014A   15135.79677112  .00000652  00000-0  14673-3 0  9996
2 39624 098.2007 191.4892 0013022 029.4983 330.6949 14.59600351 59898
SJ-11-07
1 40261U 14059A   15135.75333224  .00000739  00000-0  16231-3 0  9991
2 40261 098.1027 223.9635 0012202 216.4157 143.6219 14.60346481 33486
SJ-11-08
1 40286U 14066A   15135.78673806  .00000816  00000-0  17731-3 0  9994
2 40286 098.2295 253.4090 0010608 306.4000 053.6235 14.60645301 29261
